PROMETHEUS 2-3          
1 41855U 16067H   25285.89204610  .00197279  00000+0  17884-2 0  9999
2 41855  98.0422 154.2236 0005545 129.7022 230.4727 15.67396906489889
CORVUS BC2              
1 42846U 17042X   25285.90903733  .00005857  00000+0  42768-3 0  9998
2 42846  97.3838  92.6314 0012483 233.9406 126.0665 15.03966151449868
CORVUS BC1              
1 42847U 17042Y   25285.93946346  .00006992  00000+0  50649-3 0  9997
2 42847  97.3884  93.2924 0011822 208.5428 151.5153 15.04213777449890
MIRATA                  
1 43015U 17073C   25285.82249259  .00862679  31232-3  26726-2 0  9991
2 43015  97.5053 188.3426 0021161 355.7145   4.3943 15.91307860430344
MAKERSAT 0              
1 43016U 17073D   25285.89747935  .00028325  00000+0  10226-2 0  9998
2 43016  97.4957 163.0444 0137782  65.1121 296.4364 15.19850715428744
SIRION PATHFINDER-2     
1 43759U 18099B   25285.91916105  .00008273  00000+0  49406-3 0  9994
2 43759  97.4630 335.8452 0010996  77.8645 282.3817 15.11304931375230
CORVUS BC4              
1 43767U 18099K   25285.88307881  .00008761  00000+0  54765-3 0  9990
2 43767  97.4444 331.0306 0010055 128.5093 231.7040 15.09630359375054
SPACEBEE-7              
1 43816U 18099BL  25285.46385498  .00077939  00000+0  15541-2 0  9990
2 43816  97.4815 358.6744 0004163  31.8498 328.3002 15.46585139376025
SHIELDS 1               
1 43850U 18104B   25285.47413793  .00081374  00000+0  61779-3 0  9999
2 43850  85.0080 308.0140 0005456  55.4335 304.7449 15.72044949380999
DUCHIFAT-3              
1 44854U 19089C   25285.35617167  .00177665  00000+0  17609-2 0  9996
2 44854  36.9357 274.1827 0008411 213.1910 146.8325 15.64278149322421
M2 PATHFINDER           
1 45727U 20037E   25285.94003289  .00004962  00000+0  37345-3 0  9999
2 45727  97.8144 109.6091 0011323 268.5737  91.4191 15.02948470288333
NETSAT-4                
1 46504U 20068U   25285.89191942  .00024124  00000+0  73286-3 0  9991
2 46504  97.8579 271.1714 0009310 112.9733 247.2492 15.34028571277730
NETSAT-3                
1 46505U 20068V   25285.94155599  .00023992  00000+0  76367-3 0  9991
2 46505  97.8592 269.8713 0008713 122.1681 238.0406 15.32547726277683
NETSAT-1                
1 46506U 20068W   25285.69559584  .00017302  00000+0  65716-3 0  9990
2 46506  97.8627 266.4554 0007779 137.7324 222.4515 15.26865942277433
NETSAT-2                
1 46507U 20068X   25285.90132056  .00026892  00000+0  81531-3 0  9993
2 46507  97.8585 270.6242 0007117 130.8482 229.3377 15.34086107277678
WILDTRACKCUBE-SIMBA     
1 47941U 21022K   25286.00400116  .00076605  00000+0  11117-2 0  9993
2 47941  97.4060 193.9955 0006736 182.1864 177.9362 15.55543528252610
LEDSAT                  
1 49069U 21073D   25285.18635959  .01968563  41040-2  15407-2 0  9997
2 49069  97.3567  14.3313 0008838 283.3175  76.7126 16.15736380231036
GREENCUBE (IO-117)      
1 53109U 22080E   25285.25545733 -.00000003  00000+0  00000+0 0  9998
2 53109  70.1624  24.4535 0008662 341.8177  18.2173  6.42583517 76136
SITRO-AIS 5 (KATYS)     
1 57176U 23091L   25285.95931927  .00017748  00000+0  76820-3 0  9990
2 57176  97.5434 343.2081 0011903 249.6669 110.3289 15.22422237126639
SITRO-AIS 6 (CHIRKIN)   
1 57192U 23091AC  25285.96326434  .00010131  00000+0  44896-3 0  9997
2 57192  97.5433 343.1810 0011339 248.8883 111.1141 15.21763567126636
SITRO-AIS 8 (ANOKHIN)   
1 57193U 23091AD  25285.99901937  .00020070  00000+0  82764-3 0  9997
2 57193  97.5429 344.0322 0011285 247.5073 112.4970 15.24044329126698
SITRO-AIS 7 (FARTUSHNIY)
1 57194U 23091AE  25285.99410664  .00009383  00000+0  41788-3 0  9995
2 57194  97.5432 343.1289 0011196 250.2510 109.7518 15.21615930126633
SITRO-AIS 10 (BURDAEV)  
1 57199U 23091AK  25285.94814297  .00024031  00000+0  87998-3 0  9995
2 57199  97.5440 347.0145 0007695 224.5162 135.5460 15.27996984126873
SITRO-AIS 9 (SHCHUKIN)  
1 57201U 23091AM  25285.98246559  .00024599  00000+0  90709-3 0  9996
2 57201  97.5440 346.9194 0007674 224.8971 135.1648 15.27762120126874
SITRO-AIS 12 (SMIRENNIY)
1 57204U 23091AQ  25285.94772869  .00023491  00000+0  86069-3 0  9997
2 57204  97.5447 347.2215 0007711 217.7473 142.3226 15.27984083126889
SITRO-AIS 11 (SHEFFER)  
1 57208U 23091AU  25285.94808514  .00024945  00000+0  90685-3 0  9992
2 57208  97.5446 347.3503 0007609 218.0138 142.0565 15.28228389126896
ROBUSTA-1E (ENSO)       
1 58470U 23185J   25281.93581024  .00297561  00000+0  15281-2 0  9991
2 58470  97.3562   2.3759 0004010 303.5658  56.5227 15.80429301104004
SITRO-AIS 25            
1 59066U 24039R   25285.93587216  .00010893  00000+0  88952-3 0  9992
2 59066  95.3901  65.4507 0153890 110.8594 250.9186 14.90593946 87855
SITRO-AIS 26            
1 59067U 24039S   25285.97440451  .00009754  00000+0  80010-3 0  9997
2 59067  95.3903  65.4189 0153945 111.0718 250.7045 14.90438402 87853
SITRO-AIS 27            
1 59068U 24039T   25285.94139326  .00011254  00000+0  91550-3 0  9990
2 59068  95.3904  65.5647 0153368 110.2955 251.4828 14.90785800 87863
SITRO-AIS 28            
1 59071U 24039U   25285.92507312  .00010388  00000+0  84505-3 0  9995
2 59071  95.3902  65.5874 0153082 110.2691 251.5064 14.90826524 87869
GRBBETA                 
1 60237U 24128C   25285.93075051  .00006520  00000+0  46898-3 0  9997
2 60237  61.9927   2.1413 0056955  83.8010 276.9566 15.03913029 69048
OOV-CUBE (TUBSAT-30)    
1 60240U 24128F   25285.47215920  .00003799  00000+0  30113-3 0  9999
2 60240  61.9974   8.3474 0058467  81.1816 279.5889 15.01074107 68908
ROBUSTA-3A (MEDITERRAN*)
1 60243U 24128J   25285.50908640  .00011884  00000+0  77946-3 0  9993
2 60243  61.9895   1.1002 0056465  77.7015 283.0392 15.06755022 69030
LASARSAT                
1 62391U 24247Q   25285.92170633  .00031633  00000+0  10537-2 0  9996
2 62391  44.9781 195.2671 0004855  79.2157 280.9273 15.30617772 45234
CROCUBE                 
1 62394U 24247T   25285.76237471  .00033453  00000+0  10993-2 0  9993
2 62394  44.9752 195.7214 0005965  89.5732 270.5836 15.31025129 45217
